ONEWEB-0205             
1 48226U 21031S   25034.49016242  .00000073  00000+0  16365-3 0  9994
2 48226  87.9000  28.8490 0001983  82.0782 278.0573 13.14503146182750
ONEWEB-0206             
1 48227U 21031T   25034.53930889 -.00000172  00000+0 -49899-3 0  9992
2 48227  87.8996  28.8233 0001911  81.7716 278.3630 13.14501671182717
ONEWEB-0182             
1 48228U 21031U   25034.53456860 -.00000109  00000+0 -32826-3 0  9997
2 48228  87.9007  28.8606 0001731  83.8356 276.2971 13.14502084182926
ONEWEB-0186             
1 48229U 21031V   25034.46954253 -.00000156  00000+0 -45656-3 0  9996
2 48229  87.9006  28.8357 0001987  83.0793 277.0563 13.14503207182866
ONEWEB-0181             
1 48230U 21031W   25034.52345063  .00000071  00000+0  15724-3 0  9995
2 48230  87.9000  28.8970 0001963  88.5019 271.6335 13.14504292182725
ONEWEB-0188             
1 48231U 21031X   25034.48540062 -.00000011  00000+0 -63809-4 0  9991
2 48231  87.8996  28.8973 0001839  85.8247 274.3093 13.14503737182620
ONEWEB-0220             
1 48232U 21031Y   25034.37280213 -.00000015  00000+0 -75330-4 0  9995
2 48232  87.8996  28.8702 0002004  77.2856 282.8498 13.14503626182874
ONEWEB-0165             
1 48233U 21031Z   25034.47746877 -.00000091  00000+0 -28008-3 0  9993
2 48233  87.9002  28.8814 0002051  85.9729 274.1635 13.14503547182841
